{
  "type": "FeatureCollection",
  "features": [
    {
      "type": "Feature",
      "properties": {
        "norad_id": 32376,
        "name": "COSMO-SKYMED 2",
        "group": "resource",
        "lat": 61.751258399259164,
        "lon": 8.16826594574421,
        "alt_km": 615.7697792910476,
        "timestamp": "2025-12-17T23:38:06.519698+00:00",
        "meta_object_name": "COSMO-SKYMED 2",
        "meta_object_id": "2007-059A",
        "meta_epoch": "2025-12-17T15:00:25.861248",
        "meta_mean_motion": 14.82148551,
        "meta_eccentricity": 0.00013585,
        "meta_inclination": 97.8804,
        "meta_ra_of_asc_node": 172.8756,
        "meta_arg_of_pericenter": 83.1316,
        "meta_mean_anomaly": 277.0052,
        "meta_ephemeris_type": 0,
        "meta_classification_type": "U",
        "meta_norad_cat_id": 32376,
        "meta_element_set_no": 999,
        "meta_rev_at_epoch": 97510,
        "meta_bstar": 6.4743704e-05,
        "meta_mean_motion_dot": 4.63e-06,
        "meta_mean_motion_ddot": 0,
        "tle_line1": "1 32376U 07059A   25351.62529932  .00000463  00000+0  64744-4 0  9997",
        "tle_line2": "2 32376  97.8804 172.8756 0001358  83.1316 277.0052 14.82148551975108"
      },
      "geometry": {
        "type": "Point",
        "coordinates": [
          8.16826594574421,
          61.751258399259164
        ]
      }
    },
    {
      "type": "Feature",
      "properties": {
        "norad_id": 32382,
        "name": "RADARSAT-2",
        "group": "resource",
        "lat": 17.04858731240715,
        "lon": 179.15257108298297,
        "alt_km": 792.1177607944419,
        "timestamp": "2025-12-17T23:38:06.519708+00:00",
        "meta_object_name": "RADARSAT-2",
        "meta_object_id": "2007-061A",
        "meta_epoch": "2025-12-17T14:28:50.273760",
        "meta_mean_motion": 14.2998334,
        "meta_eccentricity": 0.00011176,
        "meta_inclination": 98.5796,
        "meta_ra_of_asc_node": 356.1232,
        "meta_arg_of_pericenter": 84.0995,
        "meta_mean_anomaly": 276.0315,
        "meta_ephemeris_type": 0,
        "meta_classification_type": "U",
        "meta_norad_cat_id": 32382,
        "meta_element_set_no": 999,
        "meta_rev_at_epoch": 94000,
        "meta_bstar": 5.2931066e-05,
        "meta_mean_motion_dot": 9.3e-07,
        "meta_mean_motion_ddot": 0,
        "tle_line1": "1 32382U 07061A   25351.60335965  .00000093  00000+0  52931-4 0  9990",
        "tle_line2": "2 32382  98.5796 356.1232 0001117  84.0995 276.0315 14.29983340940001"
      },
      "geometry": {
        "type": "Point",
        "coordinates": [
          179.15257108298297,
          17.04858731240715
        ]
      }
    },
    {
      "type": "Feature",
      "properties": {
        "norad_id": 32783,
        "name": "CARTOSAT-2A",
        "group": "resource",
        "lat": -16.163370281140537,
        "lon": -140.63020069832157,
        "alt_km": 644.6195648425819,
        "timestamp": "2025-12-17T23:38:06.519718+00:00",
        "meta_object_name": "CARTOSAT-2A",
        "meta_object_id": "2008-021A",
        "meta_epoch": "2025-12-17T14:37:53.397984",
        "meta_mean_motion": 14.78945412,
        "meta_eccentricity": 0.00115359,
        "meta_inclination": 97.793,
        "meta_ra_of_asc_node": 41.2812,
        "meta_arg_of_pericenter": 348.8579,
        "meta_mean_anomaly": 11.2376,
        "meta_ephemeris_type": 0,
        "meta_classification_type": "U",
        "meta_norad_cat_id": 32783,
        "meta_element_set_no": 999,
        "meta_rev_at_epoch": 95196,
        "meta_bstar": 5.3907043e-05,
        "meta_mean_motion_dot": 3.48e-06,
        "meta_mean_motion_ddot": 0,
        "tle_line1": "1 32783U 08021A   25351.60964581  .00000348  00000+0  53907-4 0  9991",
        "tle_line2": "2 32783  97.7930  41.2812 0011535 348.8579  11.2376 14.78945412951962"
      },
      "geometry": {
        "type": "Point",
        "coordinates": [
          -140.63020069832157,
          -16.163370281140537
        ]
      }
    },
    {
      "type": "Feature",
      "properties": {
        "norad_id": 33320,
        "name": "HUANJING 1A (HJ-1A)",
        "group": "resource",
        "lat": 33.67467751489366,
        "lon": 165.204848637041,
        "alt_km": 625.0561720268406,
        "timestamp": "2025-12-17T23:38:06.519729+00:00",
        "meta_object_name": "HUANJING 1A (HJ-1A)",
        "meta_object_id": "2008-041A",
        "meta_epoch": "2025-12-17T14:53:10.877856",
        "meta_mean_motion": 14.83410961,
        "meta_eccentricity": 0.00198863,
        "meta_inclination": 97.6536,
        "meta_ra_of_asc_node": 339.7152,
        "meta_arg_of_pericenter": 19.0249,
        "meta_mean_anomaly": 341.1704,
        "meta_ephemeris_type": 0,
        "meta_classification_type": "U",
        "meta_norad_cat_id": 33320,
        "meta_element_set_no": 999,
        "meta_rev_at_epoch": 93148,
        "meta_bstar": 0.00016019991,
        "meta_mean_motion_dot": 1.268e-05,
        "meta_mean_motion_ddot": 0,
        "tle_line1": "1 33320U 08041A   25351.62026479  .00001268  00000+0  16020-3 0  9994",
        "tle_line2": "2 33320  97.6536 339.7152 0019886  19.0249 341.1704 14.83410961931488"
      },
      "geometry": {
        "type": "Point",
        "coordinates": [
          165.204848637041,
          33.67467751489366
        ]
      }
    },
    {
      "type": "Feature",
      "properties": {
        "norad_id": 33321,
        "name": "HUANJING 1B (HJ-1B)",
        "group": "resource",
        "lat": -4.5190151884018,
        "lon": -15.644238920593557,
        "alt_km": 611.9778464220062,
        "timestamp": "2025-12-17T23:38:06.519739+00:00",
        "meta_object_name": "HUANJING 1B (HJ-1B)",
        "meta_object_id": "2008-041B",
        "meta_epoch": "2025-12-17T15:33:28.805184",
        "meta_mean_motion": 14.82832485,
        "meta_eccentricity": 0.00381449,
        "meta_inclination": 97.6397,
        "meta_ra_of_asc_node": 343.4263,
        "meta_arg_of_pericenter": 60.1026,
        "meta_mean_anomaly": 300.3969,
        "meta_ephemeris_type": 0,
        "meta_classification_type": "U",
        "meta_norad_cat_id": 33321,
        "meta_element_set_no": 999,
        "meta_rev_at_epoch": 93150,
        "meta_bstar": 6.6546407e-05,
        "meta_mean_motion_dot": 4.94e-06,
        "meta_mean_motion_ddot": 0,
        "tle_line1": "1 33321U 08041B   25351.64825006  .00000494  00000+0  66546-4 0  9999",
        "tle_line2": "2 33321  97.6397 343.4263 0038144  60.1026 300.3969 14.82832485931508"
      },
      "geometry": {
        "type": "Point",
        "coordinates": [
          -15.644238920593557,
          -4.5190151884018
        ]
      }
    },
    {
      "type": "Feature",
      "properties": {
        "norad_id": 33331,
        "name": "GEOEYE 1",
        "group": "resource",
        "lat": 1.4255025476200234,
        "lon": 62.99588961228146,
        "alt_km": 681.1127400394662,
        "timestamp": "2025-12-17T23:38:06.519749+00:00",
        "meta_object_name": "GEOEYE 1",
        "meta_object_id": "2008-042A",
        "meta_epoch": "2025-12-17T15:25:51.345696",
        "meta_mean_motion": 14.6470702,
        "meta_eccentricity": 0.00027717,
        "meta_inclination": 98.1249,
        "meta_ra_of_asc_node": 62.8621,
        "meta_arg_of_pericenter": 264.033,
        "meta_mean_anomaly": 96.0557,
        "meta_ephemeris_type": 0,
        "meta_classification_type": "U",
        "meta_norad_cat_id": 33331,
        "meta_element_set_no": 999,
        "meta_rev_at_epoch": 92357,
        "meta_bstar": 0.00010309192,
        "meta_mean_motion_dot": 5.01e-06,
        "meta_mean_motion_ddot": 0,
        "tle_line1": "1 33331U 08042A   25351.64295539  .00000501  00000+0  10309-3 0  9997",
        "tle_line2": "2 33331  98.1249  62.8621 0002771 264.0330  96.0557 14.64707020923577"
      },
      "geometry": {
        "type": "Point",
        "coordinates": [
          62.99588961228146,
          1.4255025476200234
        ]
      }
    },
    {
      "type": "Feature",
      "properties": {
        "norad_id": 33396,
        "name": "THEOS",
        "group": "resource",
        "lat": 79.25182975274227,
        "lon": -77.3307542630984,
        "alt_km": 816.8011961303373,
        "timestamp": "2025-12-17T23:38:06.519760+00:00",
        "meta_object_name": "THEOS",
        "meta_object_id": "2008-049A",
        "meta_epoch": "2025-12-17T14:43:39.796320",
        "meta_mean_motion": 14.20097153,
        "meta_eccentricity": 0.00011754,
        "meta_inclination": 98.5869,
        "meta_ra_of_asc_node": 49.5597,
        "meta_arg_of_pericenter": 94.4725,
        "meta_mean_anomaly": 265.6586,
        "meta_ephemeris_type": 0,
        "meta_classification_type": "U",
        "meta_norad_cat_id": 33396,
        "meta_element_set_no": 999,
        "meta_rev_at_epoch": 89219,
        "meta_bstar": -2.4668106e-05,
        "meta_mean_motion_dot": -9.5e-07,
        "meta_mean_motion_ddot": 0,
        "tle_line1": "1 33396U 08049A   25351.61365505 -.00000095  00000+0 -24668-4 0  9997",
        "tle_line2": "2 33396  98.5869  49.5597 0001175  94.4725 265.6586 14.20097153892194"
      },
      "geometry": {
        "type": "Point",
        "coordinates": [
          -77.3307542630984,
          79.25182975274227
        ]
      }
    }
  ]
}